CCSDS_OMM_VERS = 2.0
CREATION_DATE  = 
ORIGINATOR     = 

OBJECT_NAME    = YOTSUBA-KULOVER
OBJECT_ID      = 1998-067XN
CENTER_NAME    = EARTH
REF_FRAME      = TEME
TIME_SYSTEM    = UTC
MEAN_ELEMENT_THEORY = SGP/SGP4

EPOCH          = 2026-02-18T13:33:15.950016
MEAN_MOTION    = 15.73635780
ECCENTRICITY   = .0005171
INCLINATION    = 51.6252
RA_OF_ASC_NODE = 155.9308
ARG_OF_PERICENTER = 326.7189
MEAN_ANOMALY   = 33.3484

EPHEMERIS_TYPE = 0
CLASSIFICATION_TYPE = U
NORAD_CAT_ID   = 65941
ELEMENT_SET_NO = 999
REV_AT_EPOCH   = 2048
BSTAR          = .92117711E-3
MEAN_MOTION_DOT = .133515E-2
MEAN_MOTION_DDOT = 0

CCSDS_OMM_VERS = 2.0
CREATION_DATE  = 
ORIGINATOR     = 

OBJECT_NAME    = BOTAN
OBJECT_ID      = 1998-067XP
CENTER_NAME    = EARTH
REF_FRAME      = TEME
TIME_SYSTEM    = UTC
MEAN_ELEMENT_THEORY = SGP/SGP4

EPOCH          = 2026-02-18T12:41:16.467648
MEAN_MOTION    = 15.92827553
ECCENTRICITY   = .00094734
INCLINATION    = 51.6164
RA_OF_ASC_NODE = 151.1119
ARG_OF_PERICENTER = 345.6855
MEAN_ANOMALY   = 14.3882

EPHEMERIS_TYPE = 0
CLASSIFICATION_TYPE = U
NORAD_CAT_ID   = 65942
ELEMENT_SET_NO = 999
REV_AT_EPOCH   = 2054
BSTAR          = .13786215E-2
MEAN_MOTION_DOT = .488671E-2
MEAN_MOTION_DDOT = .10476525E-3

CCSDS_OMM_VERS = 2.0
CREATION_DATE  = 
ORIGINATOR     = 

OBJECT_NAME    = E-KAGAKU-1
OBJECT_ID      = 1998-067XQ
CENTER_NAME    = EARTH
REF_FRAME      = TEME
TIME_SYSTEM    = UTC
MEAN_ELEMENT_THEORY = SGP/SGP4

EPOCH          = 2026-02-18T12:04:07.489344
MEAN_MOTION    = 15.73457794
ECCENTRICITY   = .00051485
INCLINATION    = 51.6277
RA_OF_ASC_NODE = 156.2810
ARG_OF_PERICENTER = 338.2393
MEAN_ANOMALY   = 21.8387

EPHEMERIS_TYPE = 0
CLASSIFICATION_TYPE = U
NORAD_CAT_ID   = 65943
ELEMENT_SET_NO = 999
REV_AT_EPOCH   = 2047
BSTAR          = .87990759E-3
MEAN_MOTION_DOT = .126423E-2
MEAN_MOTION_DDOT = 0

CCSDS_OMM_VERS = 2.0
CREATION_DATE  = 
ORIGINATOR     = 

OBJECT_NAME    = HTV-X1
OBJECT_ID      = 2025-241A
CENTER_NAME    = EARTH
REF_FRAME      = TEME
TIME_SYSTEM    = UTC
MEAN_ELEMENT_THEORY = SGP/SGP4

EPOCH          = 2026-02-18T12:54:40.442112
MEAN_MOTION    = 15.48685385
ECCENTRICITY   = .00109451
INCLINATION    = 51.6325
RA_OF_ASC_NODE = 167.0200
ARG_OF_PERICENTER = 111.2724
MEAN_ANOMALY   = 248.9434

EPHEMERIS_TYPE = 0
CLASSIFICATION_TYPE = U
NORAD_CAT_ID   = 66174
ELEMENT_SET_NO = 999
REV_AT_EPOCH   = 51
BSTAR          = .18483332E-3
MEAN_MOTION_DOT = .965E-4
MEAN_MOTION_DDOT = 0

CCSDS_OMM_VERS = 2.0
CREATION_DATE  = 
ORIGINATOR     = 

OBJECT_NAME    = SHENZHOU-22
OBJECT_ID      = 2025-272A
CENTER_NAME    = EARTH
REF_FRAME      = TEME
TIME_SYSTEM    = UTC
MEAN_ELEMENT_THEORY = SGP/SGP4

EPOCH          = 2026-02-18T10:45:57.464928
MEAN_MOTION    = 15.59830752
ECCENTRICITY   = .00043307
INCLINATION    = 41.4681
RA_OF_ASC_NODE = 325.1622
ARG_OF_PERICENTER = 135.2744
MEAN_ANOMALY   = 224.8444

EPHEMERIS_TYPE = 0
CLASSIFICATION_TYPE = U
NORAD_CAT_ID   = 66645
ELEMENT_SET_NO = 999
REV_AT_EPOCH   = 26764
BSTAR          = .30825564E-3
MEAN_MOTION_DOT = .25226E-3
MEAN_MOTION_DDOT = 0

CCSDS_OMM_VERS = 2.0
CREATION_DATE  = 
ORIGINATOR     = 

OBJECT_NAME    = SOYUZ-MS 28
OBJECT_ID      = 2025-275A
CENTER_NAME    = EARTH
REF_FRAME      = TEME
TIME_SYSTEM    = UTC
MEAN_ELEMENT_THEORY = SGP/SGP4

EPOCH          = 2026-02-18T19:06:21.339648
MEAN_MOTION    = 15.48691264
ECCENTRICITY   = .0010935
INCLINATION    = 51.6323
RA_OF_ASC_NODE = 165.7431
ARG_OF_PERICENTER = 112.1599
MEAN_ANOMALY   = 248.0551

EPHEMERIS_TYPE = 0
CLASSIFICATION_TYPE = U
NORAD_CAT_ID   = 66664
ELEMENT_SET_NO = 999
REV_AT_EPOCH   = 55340
BSTAR          = .18896E-3
MEAN_MOTION_DOT = .9878E-4
MEAN_MOTION_DDOT = 0

CCSDS_OMM_VERS = 2.0
CREATION_DATE  = 
ORIGINATOR     = 

OBJECT_NAME    = DUPLEX
OBJECT_ID      = 1998-067XS
CENTER_NAME    = EARTH
REF_FRAME      = TEME
TIME_SYSTEM    = UTC
MEAN_ELEMENT_THEORY = SGP/SGP4

EPOCH          = 2026-02-18T21:23:19.844160
MEAN_MOTION    = 15.54907434
ECCENTRICITY   = .0001559
INCLINATION    = 51.6296
RA_OF_ASC_NODE = 163.3818
ARG_OF_PERICENTER = 72.2519
MEAN_ANOMALY   = 287.8642

EPHEMERIS_TYPE = 0
CLASSIFICATION_TYPE = U
NORAD_CAT_ID   = 66906
ELEMENT_SET_NO = 999
REV_AT_EPOCH   = 1220
BSTAR          = .44677E-3
MEAN_MOTION_DOT = .30062E-3
MEAN_MOTION_DDOT = 0

CCSDS_OMM_VERS = 2.0
CREATION_DATE  = 
ORIGINATOR     = 

OBJECT_NAME    = ISS OBJECT XT
OBJECT_ID      = 1998-067XT
CENTER_NAME    = EARTH
REF_FRAME      = TEME
TIME_SYSTEM    = UTC
MEAN_ELEMENT_THEORY = SGP/SGP4

EPOCH          = 2026-02-18T13:40:37.986240
MEAN_MOTION    = 15.63890097
ECCENTRICITY   = .0002932
INCLINATION    = 51.6274
RA_OF_ASC_NODE = 162.7319
ARG_OF_PERICENTER = 333.2736
MEAN_ANOMALY   = 26.8107

EPHEMERIS_TYPE = 0
CLASSIFICATION_TYPE = U
NORAD_CAT_ID   = 66907
ELEMENT_SET_NO = 999
REV_AT_EPOCH   = 1218
BSTAR          = .11094E-2
MEAN_MOTION_DOT = .107239E-2
MEAN_MOTION_DDOT = 0

CCSDS_OMM_VERS = 2.0
CREATION_DATE  = 
ORIGINATOR     = 

OBJECT_NAME    = ISS OBJECT XU
OBJECT_ID      = 1998-067XU
CENTER_NAME    = EARTH
REF_FRAME      = TEME
TIME_SYSTEM    = UTC
MEAN_ELEMENT_THEORY = SGP/SGP4

EPOCH          = 2026-02-18T13:39:27.506304
MEAN_MOTION    = 15.63937528
ECCENTRICITY   = .0002823
INCLINATION    = 51.6269
RA_OF_ASC_NODE = 162.7238
ARG_OF_PERICENTER = 338.4343
MEAN_ANOMALY   = 21.6532

EPHEMERIS_TYPE = 0
CLASSIFICATION_TYPE = U
NORAD_CAT_ID   = 66908
ELEMENT_SET_NO = 999
REV_AT_EPOCH   = 1218
BSTAR          = .11124E-2
MEAN_MOTION_DOT = .107743E-2
MEAN_MOTION_DDOT = 0

CCSDS_OMM_VERS = 2.0
CREATION_DATE  = 
ORIGINATOR     = 

OBJECT_NAME    = SILVERSAT
OBJECT_ID      = 1998-067XV
CENTER_NAME    = EARTH
REF_FRAME      = TEME
TIME_SYSTEM    = UTC
MEAN_ELEMENT_THEORY = SGP/SGP4

EPOCH          = 2026-02-18T12:48:46.165824
MEAN_MOTION    = 15.65703442
ECCENTRICITY   = .000357
INCLINATION    = 51.6278
RA_OF_ASC_NODE = 162.4906
ARG_OF_PERICENTER = 331.3718
MEAN_ANOMALY   = 28.7081

EPHEMERIS_TYPE = 0
CLASSIFICATION_TYPE = U
NORAD_CAT_ID   = 66909
ELEMENT_SET_NO = 999
REV_AT_EPOCH   = 1218
BSTAR          = .12221E-2
MEAN_MOTION_DOT = .127378E-2
MEAN_MOTION_DDOT = 0

