YOTSUBA-KULOVER         
1 65941U 98067XN  26049.56476794  .00133515  00000+0  92118-3 0  9995
2 65941  51.6252 155.9308 0005171 326.7189  33.3484 15.73635780 20483
BOTAN                   
1 65942U 98067XP  26049.52866282  .00488671  10477-3  13786-2 0  9999
2 65942  51.6164 151.1119 0009473 345.6855  14.3882 15.92827553 20543
E-KAGAKU-1              
1 65943U 98067XQ  26049.50286446  .00126423  00000+0  87991-3 0  9997
2 65943  51.6277 156.2810 0005148 338.2393  21.8387 15.73457794 20473
HTV-X1                  
1 66174U 25241A   26049.53796808  .00009650  00000+0  18483-3 0  9991
2 66174  51.6325 167.0200 0010945 111.2724 248.9434 15.48685385   514
SHENZHOU-22             
1 66645U 25272A   26049.44858177  .00025226  00000+0  30826-3 0  9998
2 66645  41.4681 325.1622 0004330 135.2744 224.8444 15.59830752267648
SOYUZ-MS 28             
1 66664U 25275A   26049.79608032  .00009878  00000+0  18896-3 0  9991
2 66664  51.6323 165.7431 0010935 112.1599 248.0551 15.48691264553401
DUPLEX                  
1 66906U 98067XS  26049.89120190  .00030062  00000+0  44677-3 0  9999
2 66906  51.6296 163.3818 0001559  72.2519 287.8642 15.54907434 12208
ISS OBJECT XT           
1 66907U 98067XT  26049.56988410  .00107239  00000+0  11094-2 0  9998
2 66907  51.6274 162.7319 0002932 333.2736  26.8107 15.63890097 12181
ISS OBJECT XU           
1 66908U 98067XU  26049.56906836  .00107743  00000+0  11124-2 0  9995
2 66908  51.6269 162.7238 0002823 338.4343  21.6532 15.63937528 12182
SILVERSAT               
1 66909U 98067XV  26049.53386766  .00127378  00000+0  12221-2 0  9992
2 66909  51.6278 162.4906 0003570 331.3718  28.7081 15.65703442 12185
